{
  "type": "FeatureCollection",
  "features": [
    {
      "type": "Feature",
      "properties": {
        "norad_id": 36528,
        "name": "COSMOS 2251 DEB",
        "group": "cosmos-2251-debris",
        "lat": 66.67724489725374,
        "lon": -159.88346443345134,
        "alt_km": 827.5574207330683,
        "timestamp": "2025-12-05T11:32:56.414577+00:00",
        "meta_object_name": "COSMOS 2251 DEB",
        "meta_object_id": "1993-036BCN",
        "meta_epoch": "2025-11-28T19:45:32.756256",
        "meta_mean_motion": 14.30521775,
        "meta_eccentricity": 0.00858193,
        "meta_inclination": 74.0168,
        "meta_ra_of_asc_node": 170.5765,
        "meta_arg_of_pericenter": 223.2164,
        "meta_mean_anomaly": 136.2231,
        "meta_ephemeris_type": 0,
        "meta_classification_type": "U",
        "meta_norad_cat_id": 36528,
        "meta_element_set_no": 999,
        "meta_rev_at_epoch": 64228,
        "meta_bstar": 0.00075224171,
        "meta_mean_motion_dot": 2.015e-05,
        "meta_mean_motion_ddot": 0,
        "tle_line1": "1 36528U 93036BCN 25332.82329579  .00002015  00000+0  75224-3 0  9995",
        "tle_line2": "2 36528  74.0168 170.5765 0085819 223.2164 136.2231 14.30521775642289"
      },
      "geometry": {
        "type": "Point",
        "coordinates": [
          -159.88346443345134,
          66.67724489725374
        ]
      }
    },
    {
      "type": "Feature",
      "properties": {
        "norad_id": 36533,
        "name": "COSMOS 2251 DEB",
        "group": "cosmos-2251-debris",
        "lat": 73.97464496085813,
        "lon": -138.1599137714171,
        "alt_km": 753.484472241028,
        "timestamp": "2025-12-05T11:32:56.414589+00:00",
        "meta_object_name": "COSMOS 2251 DEB",
        "meta_object_id": "1993-036BCT",
        "meta_epoch": "2025-12-04T03:39:46.792224",
        "meta_mean_motion": 14.49765129,
        "meta_eccentricity": 0.00490493,
        "meta_inclination": 74.0108,
        "meta_ra_of_asc_node": 130.9716,
        "meta_arg_of_pericenter": 281.613,
        "meta_mean_anomaly": 77.9527,
        "meta_ephemeris_type": 0,
        "meta_classification_type": "U",
        "meta_norad_cat_id": 36533,
        "meta_element_set_no": 999,
        "meta_rev_at_epoch": 84360,
        "meta_bstar": 0.00080793956,
        "meta_mean_motion_dot": 3.134e-05,
        "meta_mean_motion_ddot": 0,
        "tle_line1": "1 36533U 93036BCT 25338.15262491  .00003134  00000+0  80794-3 0  9993",
        "tle_line2": "2 36533  74.0108 130.9716 0049049 281.6130  77.9527 14.49765129843602"
      },
      "geometry": {
        "type": "Point",
        "coordinates": [
          -138.1599137714171,
          73.97464496085813
        ]
      }
    },
    {
      "type": "Feature",
      "properties": {
        "norad_id": 36539,
        "name": "COSMOS 2251 DEB",
        "group": "cosmos-2251-debris",
        "lat": 42.66619241685702,
        "lon": 84.33558900955457,
        "alt_km": 711.1133058576552,
        "timestamp": "2025-12-05T11:32:56.414600+00:00",
        "meta_object_name": "COSMOS 2251 DEB",
        "meta_object_id": "1993-036BCZ",
        "meta_epoch": "2025-12-04T15:35:54.538656",
        "meta_mean_motion": 14.59211397,
        "meta_eccentricity": 0.0027686,
        "meta_inclination": 74.0246,
        "meta_ra_of_asc_node": 70.6107,
        "meta_arg_of_pericenter": 216.8663,
        "meta_mean_anomaly": 143.0599,
        "meta_ephemeris_type": 0,
        "meta_classification_type": "U",
        "meta_norad_cat_id": 36539,
        "meta_element_set_no": 999,
        "meta_rev_at_epoch": 83829,
        "meta_bstar": 0.0018339,
        "meta_mean_motion_dot": 8.678e-05,
        "meta_mean_motion_ddot": 0,
        "tle_line1": "1 36539U 93036BCZ 25338.64993679  .00008678  00000+0  18339-2 0  9995",
        "tle_line2": "2 36539  74.0246  70.6107 0027686 216.8663 143.0599 14.59211397838296"
      },
      "geometry": {
        "type": "Point",
        "coordinates": [
          84.33558900955457,
          42.66619241685702
        ]
      }
    },
    {
      "type": "Feature",
      "properties": {
        "norad_id": 36540,
        "name": "COSMOS 2251 DEB",
        "group": "cosmos-2251-debris",
        "lat": 27.461478453215623,
        "lon": -157.10190297385284,
        "alt_km": 703.0019045338722,
        "timestamp": "2025-12-05T11:32:56.414610+00:00",
        "meta_object_name": "COSMOS 2251 DEB",
        "meta_object_id": "1993-036BDA",
        "meta_epoch": "2025-12-04T14:00:55.465056",
        "meta_mean_motion": 14.58365196,
        "meta_eccentricity": 0.0015372,
        "meta_inclination": 74.0288,
        "meta_ra_of_asc_node": 196.046,
        "meta_arg_of_pericenter": 266.6473,
        "meta_mean_anomaly": 93.2933,
        "meta_ephemeris_type": 0,
        "meta_classification_type": "U",
        "meta_norad_cat_id": 36540,
        "meta_element_set_no": 999,
        "meta_rev_at_epoch": 85891,
        "meta_bstar": 0.002331,
        "meta_mean_motion_dot": 0.000108,
        "meta_mean_motion_ddot": 0,
        "tle_line1": "1 36540U 93036BDA 25338.58397529  .00010800  00000+0  23310-2 0  9997",
        "tle_line2": "2 36540  74.0288 196.0460 0015372 266.6473  93.2933 14.58365196858915"
      },
      "geometry": {
        "type": "Point",
        "coordinates": [
          -157.10190297385284,
          27.461478453215623
        ]
      }
    },
    {
      "type": "Feature",
      "properties": {
        "norad_id": 36550,
        "name": "COSMOS 2251 DEB",
        "group": "cosmos-2251-debris",
        "lat": -33.42888318653479,
        "lon": -165.01228286769108,
        "alt_km": 784.6477451030432,
        "timestamp": "2025-12-05T11:32:56.414620+00:00",
        "meta_object_name": "COSMOS 2251 DEB",
        "meta_object_id": "1993-036BDL",
        "meta_epoch": "2025-12-02T08:00:24.910560",
        "meta_mean_motion": 14.27149643,
        "meta_eccentricity": 0.00787603,
        "meta_inclination": 74.0451,
        "meta_ra_of_asc_node": 211.5637,
        "meta_arg_of_pericenter": 264.4889,
        "meta_mean_anomaly": 94.7272,
        "meta_ephemeris_type": 0,
        "meta_classification_type": "U",
        "meta_norad_cat_id": 36550,
        "meta_element_set_no": 999,
        "meta_rev_at_epoch": 84447,
        "meta_bstar": 0.00078484278,
        "meta_mean_motion_dot": 1.953e-05,
        "meta_mean_motion_ddot": 0,
        "tle_line1": "1 36550U 93036BDL 25336.33362165  .00001953  00000+0  78484-3 0  9999",
        "tle_line2": "2 36550  74.0451 211.5637 0078760 264.4889  94.7272 14.27149643844475"
      },
      "geometry": {
        "type": "Point",
        "coordinates": [
          -165.01228286769108,
          -33.42888318653479
        ]
      }
    },
    {
      "type": "Feature",
      "properties": {
        "norad_id": 36551,
        "name": "COSMOS 2251 DEB",
        "group": "cosmos-2251-debris",
        "lat": -34.80486282325904,
        "lon": -138.75532857991536,
        "alt_km": 585.347282901339,
        "timestamp": "2025-12-05T11:32:56.414630+00:00",
        "meta_object_name": "COSMOS 2251 DEB",
        "meta_object_id": "1993-036BDM",
        "meta_epoch": "2025-12-01T04:16:57.552096",
        "meta_mean_motion": 15.01965558,
        "meta_eccentricity": 0.00505004,
        "meta_inclination": 73.8879,
        "meta_ra_of_asc_node": 38.501,
        "meta_arg_of_pericenter": 349.5182,
        "meta_mean_anomaly": 10.4947,
        "meta_ephemeris_type": 0,
        "meta_classification_type": "U",
        "meta_norad_cat_id": 36551,
        "meta_element_set_no": 999,
        "meta_rev_at_epoch": 66758,
        "meta_bstar": 0.0014137691,
        "meta_mean_motion_dot": 0.00019039,
        "meta_mean_motion_ddot": 0,
        "tle_line1": "1 36551U 93036BDM 25335.17844389  .00019039  00000+0  14138-2 0  9993",
        "tle_line2": "2 36551  73.8879  38.5010 0050500 349.5182  10.4947 15.01965558667585"
      },
      "geometry": {
        "type": "Point",
        "coordinates": [
          -138.75532857991536,
          -34.80486282325904
        ]
      }
    },
    {
      "type": "Feature",
      "properties": {
        "norad_id": 36557,
        "name": "COSMOS 2251 DEB",
        "group": "cosmos-2251-debris",
        "lat": 59.46213248889915,
        "lon": -68.59256390399062,
        "alt_km": 645.2208338222135,
        "timestamp": "2025-12-05T11:32:56.414640+00:00",
        "meta_object_name": "COSMOS 2251 DEB",
        "meta_object_id": "1993-036BDT",
        "meta_epoch": "2025-11-29T20:08:28.959648",
        "meta_mean_motion": 14.77361907,
        "meta_eccentricity": 0.00205231,
        "meta_inclination": 73.9794,
        "meta_ra_of_asc_node": 151.6562,
        "meta_arg_of_pericenter": 302.0455,
        "meta_mean_anomaly": 57.8725,
        "meta_ephemeris_type": 0,
        "meta_classification_type": "U",
        "meta_norad_cat_id": 36557,
        "meta_element_set_no": 999,
        "meta_rev_at_epoch": 33706,
        "meta_bstar": 0.0024129009,
        "meta_mean_motion_dot": 0.00017224,
        "meta_mean_motion_ddot": 0,
        "tle_line1": "1 36557U 93036BDT 25333.83922407  .00017224  00000+0  24129-2 0  9993",
        "tle_line2": "2 36557  73.9794 151.6562 0020523 302.0455  57.8725 14.77361907337062"
      },
      "geometry": {
        "type": "Point",
        "coordinates": [
          -68.59256390399062,
          59.46213248889915
        ]
      }
    }
  ]
}